STARLINK-36785          
1 67853U 26034D   26060.25001157 -.00395810  00000+0 -20715-2 0  9993
2 67853  53.1533 253.6279 0000871  72.9060 241.7752 15.81116936  2501
STARLINK-36608          
1 67854U 26034E   26060.25001157 -.00741489  00000+0 -39922-2 0  9991
2 67854  53.1525 253.6199 0000780  77.8707 240.9357 15.81376257  2501
STARLINK-36838          
1 67855U 26034F   26060.25001157 -.01103386  00000+0 -59837-2 0  9998
2 67855  53.1524 253.6113 0001104  79.7720 243.0709 15.81714720  2500
STARLINK-36843          
1 67856U 26034G   26060.25001157 -.01528114  00000+0 -82353-2 0  9998
2 67856  53.1519 253.5951 0000539  80.1991 250.6387 15.82284042  2507
STARLINK-36828          
1 67857U 26034H   26060.25001157 -.01338774  00000+0 -73402-2 0  9995
2 67857  53.1521 253.6035 0000755  84.7874 242.0782 15.82008049  2500
STARLINK-36837          
1 67858U 26034J   26060.25001157 -.01544745  00000+0 -82409-2 0  9990
2 67858  53.1516 253.5866 0000951  95.4661 239.2774 15.82525324  2506
STARLINK-36393          
1 67859U 26034K   26060.25001157 -.01547279  00000+0 -81855-2 0  9990
2 67859  53.1516 253.5783 0000662  74.8301 263.8313 15.82709596  2503
STARLINK-35873          
1 67860U 26034L   26060.25001157 -.01570307  00000+0 -82279-2 0  9991
2 67860  53.1511 253.5706 0000609  67.6021 274.8390 15.82955957  2641
STARLINK-36325          
1 67861U 26034M   26060.25001157 -.01563461  00000+0 -81128-2 0  9997
2 67861  53.1510 253.5625 0000631  71.8583 274.4056 15.83146166  2501
STARLINK-36332          
1 67862U 26034N   26060.25001157 -.01553821  00000+0 -79777-2 0  9994
2 67862  53.1510 253.5550 0000763  70.0812 279.9310 15.83348297  2503
STARLINK-36835          
1 67863U 26034P   26060.25001157 -.01541805  00000+0 -78377-2 0  9999
2 67863  53.1505 253.5465 0000689  81.2844 272.4661 15.83533911  2505
STARLINK-36831          
1 67864U 26034Q   26060.25001157 -.01527958  00000+0 -76814-2 0  9997
2 67864  53.1504 253.5393 0000637  72.5454 284.8308 15.83740081  2501
