CCSDS_OMM_VERS = 2.0
CREATION_DATE  = 
ORIGINATOR     = 

OBJECT_NAME    = STARLINK-36785
OBJECT_ID      = 2026-034D
CENTER_NAME    = EARTH
REF_FRAME      = TEME
TIME_SYSTEM    = UTC
MEAN_ELEMENT_THEORY = SGP/SGP4

EPOCH          = 2026-03-01T06:00:00.999648
MEAN_MOTION    = 15.81116936
ECCENTRICITY   = .00008718
INCLINATION    = 53.1533
RA_OF_ASC_NODE = 253.6279
ARG_OF_PERICENTER = 72.9060
MEAN_ANOMALY   = 241.7752

EPHEMERIS_TYPE = 0
CLASSIFICATION_TYPE = U
NORAD_CAT_ID   = 67853
ELEMENT_SET_NO = 999
REV_AT_EPOCH   = 250
BSTAR          = -.20714727E-2
MEAN_MOTION_DOT = -.39581E-2
MEAN_MOTION_DDOT = 0

CCSDS_OMM_VERS = 2.0
CREATION_DATE  = 
ORIGINATOR     = 

OBJECT_NAME    = STARLINK-36608
OBJECT_ID      = 2026-034E
CENTER_NAME    = EARTH
REF_FRAME      = TEME
TIME_SYSTEM    = UTC
MEAN_ELEMENT_THEORY = SGP/SGP4

EPOCH          = 2026-03-01T06:00:00.999648
MEAN_MOTION    = 15.81376257
ECCENTRICITY   = .00007801
INCLINATION    = 53.1525
RA_OF_ASC_NODE = 253.6199
ARG_OF_PERICENTER = 77.8707
MEAN_ANOMALY   = 240.9357

EPHEMERIS_TYPE = 0
CLASSIFICATION_TYPE = U
NORAD_CAT_ID   = 67854
ELEMENT_SET_NO = 999
REV_AT_EPOCH   = 250
BSTAR          = -.39921852E-2
MEAN_MOTION_DOT = -.741489E-2
MEAN_MOTION_DDOT = 0

CCSDS_OMM_VERS = 2.0
CREATION_DATE  = 
ORIGINATOR     = 

OBJECT_NAME    = STARLINK-36838
OBJECT_ID      = 2026-034F
CENTER_NAME    = EARTH
REF_FRAME      = TEME
TIME_SYSTEM    = UTC
MEAN_ELEMENT_THEORY = SGP/SGP4

EPOCH          = 2026-03-01T06:00:00.999648
MEAN_MOTION    = 15.81714720
ECCENTRICITY   = .00011047
INCLINATION    = 53.1524
RA_OF_ASC_NODE = 253.6113
ARG_OF_PERICENTER = 79.7720
MEAN_ANOMALY   = 243.0709

EPHEMERIS_TYPE = 0
CLASSIFICATION_TYPE = U
NORAD_CAT_ID   = 67855
ELEMENT_SET_NO = 999
REV_AT_EPOCH   = 250
BSTAR          = -.59836717E-2
MEAN_MOTION_DOT = -.1103386E-1
MEAN_MOTION_DDOT = 0

CCSDS_OMM_VERS = 2.0
CREATION_DATE  = 
ORIGINATOR     = 

OBJECT_NAME    = STARLINK-36843
OBJECT_ID      = 2026-034G
CENTER_NAME    = EARTH
REF_FRAME      = TEME
TIME_SYSTEM    = UTC
MEAN_ELEMENT_THEORY = SGP/SGP4

EPOCH          = 2026-03-01T06:00:00.999648
MEAN_MOTION    = 15.82284042
ECCENTRICITY   = .00005392
INCLINATION    = 53.1519
RA_OF_ASC_NODE = 253.5951
ARG_OF_PERICENTER = 80.1991
MEAN_ANOMALY   = 250.6387

EPHEMERIS_TYPE = 0
CLASSIFICATION_TYPE = U
NORAD_CAT_ID   = 67856
ELEMENT_SET_NO = 999
REV_AT_EPOCH   = 250
BSTAR          = -.82352634E-2
MEAN_MOTION_DOT = -.1528114E-1
MEAN_MOTION_DDOT = 0

CCSDS_OMM_VERS = 2.0
CREATION_DATE  = 
ORIGINATOR     = 

OBJECT_NAME    = STARLINK-36828
OBJECT_ID      = 2026-034H
CENTER_NAME    = EARTH
REF_FRAME      = TEME
TIME_SYSTEM    = UTC
MEAN_ELEMENT_THEORY = SGP/SGP4

EPOCH          = 2026-03-01T06:00:00.999648
MEAN_MOTION    = 15.82008049
ECCENTRICITY   = .00007558
INCLINATION    = 53.1521
RA_OF_ASC_NODE = 253.6035
ARG_OF_PERICENTER = 84.7874
MEAN_ANOMALY   = 242.0782

EPHEMERIS_TYPE = 0
CLASSIFICATION_TYPE = U
NORAD_CAT_ID   = 67857
ELEMENT_SET_NO = 999
REV_AT_EPOCH   = 250
BSTAR          = -.73401545E-2
MEAN_MOTION_DOT = -.1338774E-1
MEAN_MOTION_DDOT = 0

CCSDS_OMM_VERS = 2.0
CREATION_DATE  = 
ORIGINATOR     = 

OBJECT_NAME    = STARLINK-36837
OBJECT_ID      = 2026-034J
CENTER_NAME    = EARTH
REF_FRAME      = TEME
TIME_SYSTEM    = UTC
MEAN_ELEMENT_THEORY = SGP/SGP4

EPOCH          = 2026-03-01T06:00:00.999648
MEAN_MOTION    = 15.82525324
ECCENTRICITY   = .00009517
INCLINATION    = 53.1516
RA_OF_ASC_NODE = 253.5866
ARG_OF_PERICENTER = 95.4661
MEAN_ANOMALY   = 239.2774

EPHEMERIS_TYPE = 0
CLASSIFICATION_TYPE = U
NORAD_CAT_ID   = 67858
ELEMENT_SET_NO = 999
REV_AT_EPOCH   = 250
BSTAR          = -.82408617E-2
MEAN_MOTION_DOT = -.1544745E-1
MEAN_MOTION_DDOT = 0

CCSDS_OMM_VERS = 2.0
CREATION_DATE  = 
ORIGINATOR     = 

OBJECT_NAME    = STARLINK-36393
OBJECT_ID      = 2026-034K
CENTER_NAME    = EARTH
REF_FRAME      = TEME
TIME_SYSTEM    = UTC
MEAN_ELEMENT_THEORY = SGP/SGP4

EPOCH          = 2026-03-01T06:00:00.999648
MEAN_MOTION    = 15.82709596
ECCENTRICITY   = .00006622
INCLINATION    = 53.1516
RA_OF_ASC_NODE = 253.5783
ARG_OF_PERICENTER = 74.8301
MEAN_ANOMALY   = 263.8313

EPHEMERIS_TYPE = 0
CLASSIFICATION_TYPE = U
NORAD_CAT_ID   = 67859
ELEMENT_SET_NO = 999
REV_AT_EPOCH   = 250
BSTAR          = -.81855376E-2
MEAN_MOTION_DOT = -.1547279E-1
MEAN_MOTION_DDOT = 0

CCSDS_OMM_VERS = 2.0
CREATION_DATE  = 
ORIGINATOR     = 

OBJECT_NAME    = STARLINK-35873
OBJECT_ID      = 2026-034L
CENTER_NAME    = EARTH
REF_FRAME      = TEME
TIME_SYSTEM    = UTC
MEAN_ELEMENT_THEORY = SGP/SGP4

EPOCH          = 2026-03-01T06:00:00.999648
MEAN_MOTION    = 15.82955957
ECCENTRICITY   = .00006096
INCLINATION    = 53.1511
RA_OF_ASC_NODE = 253.5706
ARG_OF_PERICENTER = 67.6021
MEAN_ANOMALY   = 274.8390

EPHEMERIS_TYPE = 0
CLASSIFICATION_TYPE = U
NORAD_CAT_ID   = 67860
ELEMENT_SET_NO = 999
REV_AT_EPOCH   = 264
BSTAR          = -.82278773E-2
MEAN_MOTION_DOT = -.1570307E-1
MEAN_MOTION_DDOT = 0

CCSDS_OMM_VERS = 2.0
CREATION_DATE  = 
ORIGINATOR     = 

OBJECT_NAME    = STARLINK-36325
OBJECT_ID      = 2026-034M
CENTER_NAME    = EARTH
REF_FRAME      = TEME
TIME_SYSTEM    = UTC
MEAN_ELEMENT_THEORY = SGP/SGP4

EPOCH          = 2026-03-01T06:00:00.999648
MEAN_MOTION    = 15.83146166
ECCENTRICITY   = .00006315
INCLINATION    = 53.1510
RA_OF_ASC_NODE = 253.5625
ARG_OF_PERICENTER = 71.8583
MEAN_ANOMALY   = 274.4056

EPHEMERIS_TYPE = 0
CLASSIFICATION_TYPE = U
NORAD_CAT_ID   = 67861
ELEMENT_SET_NO = 999
REV_AT_EPOCH   = 250
BSTAR          = -.81128054E-2
MEAN_MOTION_DOT = -.1563461E-1
MEAN_MOTION_DDOT = 0

CCSDS_OMM_VERS = 2.0
CREATION_DATE  = 
ORIGINATOR     = 

OBJECT_NAME    = STARLINK-36332
OBJECT_ID      = 2026-034N
CENTER_NAME    = EARTH
REF_FRAME      = TEME
TIME_SYSTEM    = UTC
MEAN_ELEMENT_THEORY = SGP/SGP4

EPOCH          = 2026-03-01T06:00:00.999648
MEAN_MOTION    = 15.83348297
ECCENTRICITY   = .00007631
INCLINATION    = 53.1510
RA_OF_ASC_NODE = 253.5550
ARG_OF_PERICENTER = 70.0812
MEAN_ANOMALY   = 279.9310

EPHEMERIS_TYPE = 0
CLASSIFICATION_TYPE = U
NORAD_CAT_ID   = 67862
ELEMENT_SET_NO = 999
REV_AT_EPOCH   = 250
BSTAR          = -.7977677E-2
MEAN_MOTION_DOT = -.1553821E-1
MEAN_MOTION_DDOT = 0

CCSDS_OMM_VERS = 2.0
CREATION_DATE  = 
ORIGINATOR     = 

OBJECT_NAME    = STARLINK-36835
OBJECT_ID      = 2026-034P
CENTER_NAME    = EARTH
REF_FRAME      = TEME
TIME_SYSTEM    = UTC
MEAN_ELEMENT_THEORY = SGP/SGP4

EPOCH          = 2026-03-01T06:00:00.999648
MEAN_MOTION    = 15.83533911
ECCENTRICITY   = .00006899
INCLINATION    = 53.1505
RA_OF_ASC_NODE = 253.5465
ARG_OF_PERICENTER = 81.2844
MEAN_ANOMALY   = 272.4661

EPHEMERIS_TYPE = 0
CLASSIFICATION_TYPE = U
NORAD_CAT_ID   = 67863
ELEMENT_SET_NO = 999
REV_AT_EPOCH   = 250
BSTAR          = -.78376623E-2
MEAN_MOTION_DOT = -.1541805E-1
MEAN_MOTION_DDOT = 0

CCSDS_OMM_VERS = 2.0
CREATION_DATE  = 
ORIGINATOR     = 

OBJECT_NAME    = STARLINK-36831
OBJECT_ID      = 2026-034Q
CENTER_NAME    = EARTH
REF_FRAME      = TEME
TIME_SYSTEM    = UTC
MEAN_ELEMENT_THEORY = SGP/SGP4

EPOCH          = 2026-03-01T06:00:00.999648
MEAN_MOTION    = 15.83740081
ECCENTRICITY   = .00006377
INCLINATION    = 53.1504
RA_OF_ASC_NODE = 253.5393
ARG_OF_PERICENTER = 72.5454
MEAN_ANOMALY   = 284.8308

EPHEMERIS_TYPE = 0
CLASSIFICATION_TYPE = U
NORAD_CAT_ID   = 67864
ELEMENT_SET_NO = 999
REV_AT_EPOCH   = 250
BSTAR          = -.76813959E-2
MEAN_MOTION_DOT = -.1527958E-1
MEAN_MOTION_DDOT = 0

